start=new Date('2022-06-22T00:00:00.000Z').valueOf();
sats=[{"GP_ID":"206579617","CENTER_NAME":"EARTH","REF_FRAME":"TEME","MEAN_MOTION_DDOT":"0.0000000000000","MEAN_MOTION_DOT":"0.00001533","REV_AT_EPOCH":"13061","EPHEMERIS_TYPE":"0","MEAN_ELEMENT_THEORY":"SGP4","ARG_OF_PERICENTER":"66.6094","COUNTRY_CODE":"US","SITE":"AFETR","DECAY_DATE":null,"PERIAPSIS":"546.065","APOAPSIS":"548.370","BSTAR":"0.00012183000000","OBJECT_NAME":"STARLINK-1233","TIME_SYSTEM":"UTC","MEAN_ANOMALY":"293.5070","EPOCH":"2022-06-21T21:18:11.196576","NORAD_CAT_ID":"45214","SEMIMAJOR_AXIS":"6925.353","INCLINATION":"53.0555","RA_OF_ASC_NODE":"357.5313","RCS_SIZE":"LARGE","OBJECT_TYPE":"PAYLOAD","ELEMENT_SET_NO":"999","PERIOD":"95.592","MEAN_MOTION":"15.06398697","TLE_LINE2":"2 45214  53.0555 357.5313 0001664  66.6094 293.5070 15.06398697130617","FILE":"3499203","LAUNCH_DATE":"2020-02-17","ECCENTRICITY":"0.00016640","OBJECT_ID":"2020-012AN","TLE_LINE1":"1 45214U 20012AN  22172.88762959  .00001533  00000-0  12183-3 0  9999","CLASSIFICATION_TYPE":"U"},{"BSTAR":"0.00004873400000","OBJECT_NAME":"STARLINK-1245","APOAPSIS":"548.198","DECAY_DATE":null,"PERIAPSIS":"546.247","TIME_SYSTEM":"UTC","CENTER_NAME":"EARTH","GP_ID":"206578372","MEAN_MOTION_DDOT":"0.0000000000000","REV_AT_EPOCH":"13054","MEAN_MOTION_DOT":"0.00000444","REF_FRAME":"TEME","EPHEMERIS_TYPE":"0","MEAN_ELEMENT_THEORY":"SGP4","SITE":"AFETR","ARG_OF_PERICENTER":"72.5383","COUNTRY_CODE":"US","LAUNCH_DATE":"2020-02-17","FILE":"3499203","ECCENTRICITY":"0.00014090","OBJECT_ID":"2020-012AP","TLE_LINE1":"1 45215U 20012AP  22172.81854474  .00000444  00000-0  48734-4 0  9999","CLASSIFICATION_TYPE":"U","MEAN_ANOMALY":"287.5760","EPOCH":"2022-06-21T19:38:42.265536","INCLINATION":"53.0572","RA_OF_ASC_NODE":"357.8519","RCS_SIZE":"LARGE","OBJECT_TYPE":"PAYLOAD","SEMIMAJOR_AXIS":"6925.357","NORAD_CAT_ID":"45215","PERIOD":"95.592","ELEMENT_SET_NO":"999","TLE_LINE2":"2 45215  53.0572 357.8519 0001409  72.5383 287.5760 15.06397113130545","MEAN_MOTION":"15.06397113"},{"TLE_LINE1":"1 45217U 20012AR  22172.79273858  .00000355  00000-0  42734-4 0  9994","CLASSIFICATION_TYPE":"U","LAUNCH_DATE":"2020-02-17","FILE":"3499203","ECCENTRICITY":"0.00015960","OBJECT_ID":"2020-012AR","PERIOD":"95.592","ELEMENT_SET_NO":"999","TLE_LINE2":"2 45217  53.0551 357.9736 0001596  68.8561 291.2598 15.06396282130603","MEAN_MOTION":"15.06396282","MEAN_ANOMALY":"291.2598","EPOCH":"2022-06-21T19:01:32.613312","RA_OF_ASC_NODE":"357.9736","INCLINATION":"53.0551","RCS_SIZE":"LARGE","OBJECT_TYPE":"PAYLOAD","NORAD_CAT_ID":"45217","SEMIMAJOR_AXIS":"6925.360","BSTAR":"0.00004273400000","OBJECT_NAME":"STARLINK-1271","DECAY_DATE":null,"APOAPSIS":"548.330","PERIAPSIS":"546.120","TIME_SYSTEM":"UTC","EPHEMERIS_TYPE":"0","MEAN_ELEMENT_THEORY":"SGP4","SITE":"AFETR","ARG_OF_PERICENTER":"68.8561","COUNTRY_CODE":"US","CENTER_NAME":"EARTH","GP_ID":"206579124","MEAN_MOTION_DDOT":"0.0000000000000","REV_AT_EPOCH":"13060","MEAN_MOTION_DOT":"0.00000355","REF_FRAME":"TEME"},{"TIME_SYSTEM":"UTC","BSTAR":"0.00032101000000","OBJECT_NAME":"STARLINK-1187","PERIAPSIS":"546.214","DECAY_DATE":null,"APOAPSIS":"548.176","MEAN_MOTION_DDOT":"0.0000000000000","REV_AT_EPOCH":"13090","MEAN_MOTION_DOT":"0.00004504","REF_FRAME":"TEME","CENTER_NAME":"EARTH","GP_ID":"206579369","SITE":"AFETR","ARG_OF_PERICENTER":"73.3108","COUNTRY_CODE":"US","EPHEMERIS_TYPE":"0","MEAN_ELEMENT_THEORY":"SGP4","ECCENTRICITY":"0.00014170","OBJECT_ID":"2020-012AT","LAUNCH_DATE":"2020-02-17","FILE":"3499203","CLASSIFICATION_TYPE":"U","TLE_LINE1":"1 45219U 20012AT  22172.85724385  .00004504  00000-0  32101-3 0  9995","RA_OF_ASC_NODE":"337.6818","INCLINATION":"53.0558","OBJECT_TYPE":"PAYLOAD","RCS_SIZE":"LARGE","SEMIMAJOR_AXIS":"6925.330","NORAD_CAT_ID":"45219","MEAN_ANOMALY":"286.8036","EPOCH":"2022-06-21T20:34:25.868640","MEAN_MOTION":"15.06406102","TLE_LINE2":"2 45219  53.0558 337.6818 0001417  73.3108 286.8036 15.06406102130901","PERIOD":"95.592","ELEMENT_SET_NO":"999"},{"EPOCH":"2022-06-21T20:39:44.053056","MEAN_ANOMALY":"295.0294","NORAD_CAT_ID":"45221","SEMIMAJOR_AXIS":"6925.331","OBJECT_TYPE":"PAYLOAD","RCS_SIZE":"LARGE","INCLINATION":"53.0534","RA_OF_ASC_NODE":"337.6745","ELEMENT_SET_NO":"999","PERIOD":"95.592","TLE_LINE2":"2 45221  53.0534 337.6745 0001701  65.0871 295.0294 15.06405886130892","MEAN_MOTION":"15.06405886","FILE":"3499203","LAUNCH_DATE":"2020-02-17","ECCENTRICITY":"0.00017010","OBJECT_ID":"2020-012AV","TLE_LINE1":"1 45221U 20012AV  22172.86092654  .00002115  00000-0  16082-3 0  9992","CLASSIFICATION_TYPE":"U","GP_ID":"206580117","CENTER_NAME":"EARTH","REF_FRAME":"TEME","REV_AT_EPOCH":"13089","MEAN_MOTION_DOT":"0.00002115","MEAN_MOTION_DDOT":"0.0000000000000","MEAN_ELEMENT_THEORY":"SGP4","EPHEMERIS_TYPE":"0","COUNTRY_CODE":"US","ARG_OF_PERICENTER":"65.0871","SITE":"AFETR","DECAY_DATE":null,"APOAPSIS":"548.374","PERIAPSIS":"546.018","OBJECT_NAME":"STARLINK-1189","BSTAR":"0.00016082000000","TIME_SYSTEM":"UTC"},{"TIME_SYSTEM":"UTC","BSTAR":"0.00016637000000","OBJECT_NAME":"STARLINK-1191","DECAY_DATE":null,"PERIAPSIS":"546.024","APOAPSIS":"548.429","SITE":"AFETR","ARG_OF_PERICENTER":"65.3295","COUNTRY_CODE":"US","EPHEMERIS_TYPE":"0","MEAN_ELEMENT_THEORY":"SGP4","MEAN_MOTION_DDOT":"0.0000000000000","MEAN_MOTION_DOT":"0.00002197","REV_AT_EPOCH":"13089","REF_FRAME":"TEME","CENTER_NAME":"EARTH","GP_ID":"206578872","CLASSIFICATION_TYPE":"U","TLE_LINE1":"1 45222U 20012AW  22172.86830260  .00002197  00000-0  16637-3 0  9992","ECCENTRICITY":"0.00017370","OBJECT_ID":"2020-012AW","LAUNCH_DATE":"2020-02-17","FILE":"3499203","TLE_LINE2":"2 45222  53.0543 337.6174 0001737  65.3295 294.7875 15.06395787130890","MEAN_MOTION":"15.06395787","PERIOD":"95.592","ELEMENT_SET_NO":"999","INCLINATION":"53.0543","RA_OF_ASC_NODE":"337.6174","RCS_SIZE":"LARGE","OBJECT_TYPE":"PAYLOAD","NORAD_CAT_ID":"45222","SEMIMAJOR_AXIS":"6925.361","MEAN_ANOMALY":"294.7875","EPOCH":"2022-06-21T20:50:21.344640"},{"TIME_SYSTEM":"UTC","BSTAR":"0.00009338800000","OBJECT_NAME":"STARLINK-1212","PERIAPSIS":"546.041","DECAY_DATE":null,"APOAPSIS":"548.397","SITE":"AFETR","ARG_OF_PERICENTER":"59.0079","COUNTRY_CODE":"US","EPHEMERIS_TYPE":"0","MEAN_ELEMENT_THEORY":"SGP4","MEAN_MOTION_DDOT":"0.0000000000000","MEAN_MOTION_DOT":"0.00001110","REV_AT_EPOCH":"13090","REF_FRAME":"TEME","CENTER_NAME":"EARTH","GP_ID":"206578625","CLASSIFICATION_TYPE":"U","TLE_LINE1":"1 45223U 20012AX  22172.88946934  .00001110  00000-0  93388-4 0  9994","OBJECT_ID":"2020-012AX","ECCENTRICITY":"0.00017010","LAUNCH_DATE":"2020-02-17","FILE":"3499203","TLE_LINE2":"2 45223  53.0551 337.5253 0001701  59.0079 301.1077 15.06398220130902","MEAN_MOTION":"15.06398220","PERIOD":"95.592","ELEMENT_SET_NO":"999","INCLINATION":"53.0551","RA_OF_ASC_NODE":"337.5253","RCS_SIZE":"LARGE","OBJECT_TYPE":"PAYLOAD","SEMIMAJOR_AXIS":"6925.354","NORAD_CAT_ID":"45223","MEAN_ANOMALY":"301.1077","EPOCH":"2022-06-21T21:20:50.150976"},{"MEAN_ANOMALY":"301.9404","EPOCH":"2022-06-21T18:37:40.209312","SEMIMAJOR_AXIS":"6925.380","NORAD_CAT_ID":"45225","INCLINATION":"53.0549","RA_OF_ASC_NODE":"338.0309","OBJECT_TYPE":"PAYLOAD","RCS_SIZE":"LARGE","ELEMENT_SET_NO":"999","PERIOD":"95.593","TLE_LINE2":"2 45225  53.0549 338.0309 0001802  58.1760 301.9404 15.06389855130836","MEAN_MOTION":"15.06389855","FILE":"3499203","LAUNCH_DATE":"2020-02-17","ECCENTRICITY":"0.00018020","OBJECT_ID":"2020-012AZ","TLE_LINE1":"1 45225U 20012AZ  22172.77615983  .00000388  00000-0  44970-4 0  9990","CLASSIFICATION_TYPE":"U","GP_ID":"206579869","CENTER_NAME":"EARTH","REF_FRAME":"TEME","MEAN_MOTION_DDOT":"0.0000000000000","REV_AT_EPOCH":"13083","MEAN_MOTION_DOT":"0.00000388","EPHEMERIS_TYPE":"0","MEAN_ELEMENT_THEORY":"SGP4","ARG_OF_PERICENTER":"58.1760","COUNTRY_CODE":"US","SITE":"AFETR","DECAY_DATE":null,"APOAPSIS":"548.493","PERIAPSIS":"545.997","BSTAR":"0.00004497000000","OBJECT_NAME":"STARLINK-1215","TIME_SYSTEM":"UTC"},{"TIME_SYSTEM":"UTC","PERIAPSIS":"546.115","DECAY_DATE":null,"APOAPSIS":"548.364","BSTAR":"0.00001413900000","OBJECT_NAME":"STARLINK-1217","ARG_OF_PERICENTER":"80.0953","COUNTRY_CODE":"US","SITE":"AFETR","EPHEMERIS_TYPE":"0","MEAN_ELEMENT_THEORY":"SGP4","REF_FRAME":"TEME","MEAN_MOTION_DDOT":"0.0000000000000","REV_AT_EPOCH":"13080","MEAN_MOTION_DOT":"-0.00000071","GP_ID":"206579618","CENTER_NAME":"EARTH","CLASSIFICATION_TYPE":"U","TLE_LINE1":"1 45226U 20012BA  22172.84987825 -.00000071  00000-0  14139-4 0  9990","OBJECT_ID":"2020-012BA","ECCENTRICITY":"0.00016240","FILE":"3499203","LAUNCH_DATE":"2020-02-17","MEAN_MOTION":"15.06391593","TLE_LINE2":"2 45226  53.0559 337.7103 0001624  80.0953 280.0219 15.06391593130806","ELEMENT_SET_NO":"999","PERIOD":"95.593","SEMIMAJOR_AXIS":"6925.374","NORAD_CAT_ID":"45226","RA_OF_ASC_NODE":"337.7103","INCLINATION":"53.0559","OBJECT_TYPE":"PAYLOAD","RCS_SIZE":"LARGE","MEAN_ANOMALY":"280.0219","EPOCH":"2022-06-21T20:23:49.480800"},{"MEAN_MOTION":"15.06406319","TLE_LINE2":"2 45227  53.0574 337.6014 0001113  77.5104 282.6009 15.06406319130815","PERIOD":"95.592","ELEMENT_SET_NO":"999","RA_OF_ASC_NODE":"337.6014","INCLINATION":"53.0574","OBJECT_TYPE":"PAYLOAD","RCS_SIZE":"LARGE","SEMIMAJOR_AXIS":"6925.329","NORAD_CAT_ID":"45227","MEAN_ANOMALY":"282.6009","EPOCH":"2022-06-21T20:55:39.179136","CLASSIFICATION_TYPE":"U","TLE_LINE1":"1 45227U 20012BB  22172.87198124  .00000577  00000-0  57586-4 0  9993","OBJECT_ID":"2020-012BB","ECCENTRICITY":"0.00011130","LAUNCH_DATE":"2020-02-17","FILE":"3499203","SITE":"AFETR","ARG_OF_PERICENTER":"77.5104","COUNTRY_CODE":"US","EPHEMERIS_TYPE":"0","MEAN_ELEMENT_THEORY":"SGP4","MEAN_MOTION_DDOT":"0.0000000000000","REV_AT_EPOCH":"13081","MEAN_MOTION_DOT":"0.00000577","REF_FRAME":"TEME","CENTER_NAME":"EARTH","GP_ID":"206578373","TIME_SYSTEM":"UTC","BSTAR":"0.00005758600000","OBJECT_NAME":"STARLINK-1221","APOAPSIS":"547.965","DECAY_DATE":null,"PERIAPSIS":"546.423"}];
